{
  "type": "FeatureCollection",
  "features": [
    {
      "type": "Feature",
      "properties": {
        "norad_id": 34540,
        "name": "IRIDIUM 33 DEB",
        "group": "iridium-33-debris",
        "lat": 33.41198775117717,
        "lon": 119.79977979610932,
        "alt_km": 630.0211784744524,
        "timestamp": "2025-12-24T11:33:00.402869+00:00",
        "meta_object_name": "IRIDIUM 33 DEB",
        "meta_object_id": "1997-051JH",
        "meta_epoch": "2025-12-24T02:49:33.288960",
        "meta_mean_motion": 14.75542343,
        "meta_eccentricity": 0.0018147,
        "meta_inclination": 86.3118,
        "meta_ra_of_asc_node": 302.4047,
        "meta_arg_of_pericenter": 121.3128,
        "meta_mean_anomaly": 255.331,
        "meta_ephemeris_type": 0,
        "meta_classification_type": "U",
        "meta_norad_cat_id": 34540,
        "meta_element_set_no": 999,
        "meta_rev_at_epoch": 89189,
        "meta_bstar": 0.0016242,
        "meta_mean_motion_dot": 0.00011122,
        "meta_mean_motion_ddot": 0,
        "tle_line1": "1 34540U 97051JH  25358.11774640  .00011122  00000+0  16242-2 0  9994",
        "tle_line2": "2 34540  86.3118 302.4047 0018147 121.3128 255.3310 14.75542343891896"
      },
      "geometry": {
        "type": "Point",
        "coordinates": [
          119.79977979610932,
          33.41198775117717
        ]
      }
    },
    {
      "type": "Feature",
      "properties": {
        "norad_id": 34648,
        "name": "IRIDIUM 33 DEB",
        "group": "iridium-33-debris",
        "lat": 59.57383400995601,
        "lon": 91.03274080166615,
        "alt_km": 948.2626354424829,
        "timestamp": "2025-12-24T11:33:00.402879+00:00",
        "meta_object_name": "IRIDIUM 33 DEB",
        "meta_object_id": "1997-051JZ",
        "meta_epoch": "2025-12-24T00:45:40.219200",
        "meta_mean_motion": 14.11806302,
        "meta_eccentricity": 0.0178897,
        "meta_inclination": 86.3894,
        "meta_ra_of_asc_node": 277.386,
        "meta_arg_of_pericenter": 263.4073,
        "meta_mean_anomaly": 94.6719,
        "meta_ephemeris_type": 0,
        "meta_classification_type": "U",
        "meta_norad_cat_id": 34648,
        "meta_element_set_no": 999,
        "meta_rev_at_epoch": 85120,
        "meta_bstar": 0.0062689,
        "meta_mean_motion_dot": 0.0001332,
        "meta_mean_motion_ddot": 0,
        "tle_line1": "1 34648U 97051JZ  25358.03171550  .00013320  00000+0  62689-2 0  9993",
        "tle_line2": "2 34648  86.3894 277.3860 0178897 263.4073  94.6719 14.11806302851201"
      },
      "geometry": {
        "type": "Point",
        "coordinates": [
          91.03274080166615,
          59.57383400995601
        ]
      }
    },
    {
      "type": "Feature",
      "properties": {
        "norad_id": 34651,
        "name": "IRIDIUM 33 DEB",
        "group": "iridium-33-debris",
        "lat": 58.59116155533815,
        "lon": 141.6935707324218,
        "alt_km": 829.7678000762853,
        "timestamp": "2025-12-24T11:33:00.402890+00:00",
        "meta_object_name": "IRIDIUM 33 DEB",
        "meta_object_id": "1997-051KC",
        "meta_epoch": "2025-12-24T02:50:57.420096",
        "meta_mean_motion": 14.25993338,
        "meta_eccentricity": 0.0142175,
        "meta_inclination": 86.283,
        "meta_ra_of_asc_node": 135.7365,
        "meta_arg_of_pericenter": 167.9905,
        "meta_mean_anomaly": 192.4738,
        "meta_ephemeris_type": 0,
        "meta_classification_type": "U",
        "meta_norad_cat_id": 34651,
        "meta_element_set_no": 999,
        "meta_rev_at_epoch": 86058,
        "meta_bstar": 0.0032089,
        "meta_mean_motion_dot": 8.536e-05,
        "meta_mean_motion_ddot": 0,
        "tle_line1": "1 34651U 97051KC  25358.11872014  .00008536  00000+0  32089-2 0  9993",
        "tle_line2": "2 34651  86.2830 135.7365 0142175 167.9905 192.4738 14.25993338860583"
      },
      "geometry": {
        "type": "Point",
        "coordinates": [
          141.6935707324218,
          58.59116155533815
        ]
      }
    },
    {
      "type": "Feature",
      "properties": {
        "norad_id": 34652,
        "name": "IRIDIUM 33 DEB",
        "group": "iridium-33-debris",
        "lat": -19.241923878383854,
        "lon": 156.05595476439885,
        "alt_km": 681.3632220213549,
        "timestamp": "2025-12-24T11:33:00.402900+00:00",
        "meta_object_name": "IRIDIUM 33 DEB",
        "meta_object_id": "1997-051KD",
        "meta_epoch": "2025-12-23T23:25:38.355168",
        "meta_mean_motion": 14.62155088,
        "meta_eccentricity": 0.0025453,
        "meta_inclination": 86.332,
        "meta_ra_of_asc_node": 334.9977,
        "meta_arg_of_pericenter": 256.9837,
        "meta_mean_anomaly": 165.3312,
        "meta_ephemeris_type": 0,
        "meta_classification_type": "U",
        "meta_norad_cat_id": 34652,
        "meta_element_set_no": 999,
        "meta_rev_at_epoch": 88648,
        "meta_bstar": 0.00095749,
        "meta_mean_motion_dot": 4.859e-05,
        "meta_mean_motion_ddot": 0,
        "tle_line1": "1 34652U 97051KD  25357.97613837  .00004859  00000+0  95749-3 0  9990",
        "tle_line2": "2 34652  86.3320 334.9977 0025453 256.9837 165.3312 14.62155088886480"
      },
      "geometry": {
        "type": "Point",
        "coordinates": [
          156.05595476439885,
          -19.241923878383854
        ]
      }
    },
    {
      "type": "Feature",
      "properties": {
        "norad_id": 34690,
        "name": "IRIDIUM 33 DEB",
        "group": "iridium-33-debris",
        "lat": 52.64251076750325,
        "lon": -152.873077579069,
        "alt_km": 709.0757907654661,
        "timestamp": "2025-12-24T11:33:00.402920+00:00",
        "meta_object_name": "IRIDIUM 33 DEB",
        "meta_object_id": "1997-051KM",
        "meta_epoch": "2025-12-23T02:05:55.177152",
        "meta_mean_motion": 14.55131538,
        "meta_eccentricity": 0.00096335,
        "meta_inclination": 86.3772,
        "meta_ra_of_asc_node": 32.4934,
        "meta_arg_of_pericenter": 354.9815,
        "meta_mean_anomaly": 35.335,
        "meta_ephemeris_type": 0,
        "meta_classification_type": "U",
        "meta_norad_cat_id": 34690,
        "meta_element_set_no": 999,
        "meta_rev_at_epoch": 88245,
        "meta_bstar": 0.00039542617,
        "meta_mean_motion_dot": 1.728e-05,
        "meta_mean_motion_ddot": 0,
        "tle_line1": "1 34690U 97051KM  25357.08744418  .00001728  00000+0  39543-3 0  9996",
        "tle_line2": "2 34690  86.3772  32.4934 0009633 354.9815  35.3350 14.55131538882450"
      },
      "geometry": {
        "type": "Point",
        "coordinates": [
          -152.873077579069,
          52.64251076750325
        ]
      }
    },
    {
      "type": "Feature",
      "properties": {
        "norad_id": 34693,
        "name": "IRIDIUM 33 DEB",
        "group": "iridium-33-debris",
        "lat": 67.03040053346368,
        "lon": -53.25214662124019,
        "alt_km": 461.38283061770926,
        "timestamp": "2025-12-24T11:33:00.402956+00:00",
        "meta_object_name": "IRIDIUM 33 DEB",
        "meta_object_id": "1997-051KQ",
        "meta_epoch": "2025-12-23T19:41:55.330656",
        "meta_mean_motion": 15.30604195,
        "meta_eccentricity": 0.00103314,
        "meta_inclination": 86.3059,
        "meta_ra_of_asc_node": 298.3092,
        "meta_arg_of_pericenter": 33.2484,
        "meta_mean_anomaly": 356.9991,
        "meta_ephemeris_type": 0,
        "meta_classification_type": "U",
        "meta_norad_cat_id": 34693,
        "meta_element_set_no": 999,
        "meta_rev_at_epoch": 89084,
        "meta_bstar": 0.0045104698,
        "meta_mean_motion_dot": 0.00135771,
        "meta_mean_motion_ddot": 0,
        "tle_line1": "1 34693U 97051KQ  25357.82077929  .00135771  00000+0  45105-2 0  9993",
        "tle_line2": "2 34693  86.3059 298.3092 0010331  33.2484 356.9991 15.30604195890848"
      },
      "geometry": {
        "type": "Point",
        "coordinates": [
          -53.25214662124019,
          67.03040053346368
        ]
      }
    },
    {
      "type": "Feature",
      "properties": {
        "norad_id": 34696,
        "name": "IRIDIUM 33 DEB",
        "group": "iridium-33-debris",
        "lat": -21.95693001355734,
        "lon": 20.516099528710534,
        "alt_km": 725.5114778860807,
        "timestamp": "2025-12-24T11:33:00.402980+00:00",
        "meta_object_name": "IRIDIUM 33 DEB",
        "meta_object_id": "1997-051KT",
        "meta_epoch": "2025-12-23T20:04:25.434336",
        "meta_mean_motion": 14.6559156,
        "meta_eccentricity": 0.00738952,
        "meta_inclination": 86.1849,
        "meta_ra_of_asc_node": 22.3578,
        "meta_arg_of_pericenter": 130.1788,
        "meta_mean_anomaly": 48.2218,
        "meta_ephemeris_type": 0,
        "meta_classification_type": "U",
        "meta_norad_cat_id": 34696,
        "meta_element_set_no": 999,
        "meta_rev_at_epoch": 86835,
        "meta_bstar": 0.0041353445,
        "meta_mean_motion_dot": 0.00023449,
        "meta_mean_motion_ddot": 0,
        "tle_line1": "1 34696U 97051KT  25357.83640549  .00023449  00000+0  41353-2 0  9990",
        "tle_line2": "2 34696  86.1849  22.3578 0073895 130.1788  48.2218 14.65591560868350"
      },
      "geometry": {
        "type": "Point",
        "coordinates": [
          20.516099528710534,
          -21.95693001355734
        ]
      }
    }
  ]
}